{
 "generated_at": "2026-07-08T07:29:27Z",
 "sources": [
  {
   "name": "CelesTrak",
   "url": "https://celestrak.org/NORAD/elements/",
   "license": "frei verfügbar; Attribution. Ursprünglich USSPACECOM/Space-Track."
  },
  {
   "name": "GCAT (J. McDowell, planet4589.org)",
   "url": "https://planet4589.org/space/gcat/",
   "license": "CC-BY 4.0"
  }
 ],
 "satellites": [
  {
   "norad": 54743,
   "name": "METEOSAT-12 (MTG-I1)",
   "intl": "2022-170C",
   "group": "weather",
   "gcat": {
    "class": "C",
    "category": "MET",
    "owner": "EUMET",
    "state": "I-EUM"
   },
   "omm": {
    "OBJECT_NAME": "METEOSAT-12 (MTG-I1)",
    "OBJECT_ID": "2022-170C",
    "EPOCH": "2026-07-07T17:10:03.785376",
    "MEAN_MOTION": 1.00266664,
    "ECCENTRICITY": 0.0003972,
    "INCLINATION": 0.7171,
    "RA_OF_ASC_NODE": 18.3212,
    "ARG_OF_PERICENTER": 82.3437,
    "MEAN_ANOMALY": 82.3271,
    "EPHEMERIS_TYPE": 0,
    "CLASSIFICATION_TYPE": "U",
    "NORAD_CAT_ID": 54743,
    "ELEMENT_SET_NO": 999,
    "REV_AT_EPOCH": 1318,
    "BSTAR": 0,
    "MEAN_MOTION_DOT": 7e-8,
    "MEAN_MOTION_DDOT": 0
   }
  },
  {
   "norad": 28912,
   "name": "METEOSAT-9 (MSG-2)",
   "intl": "2005-049B",
   "group": "weather",
   "gcat": {
    "class": "C",
    "category": "MET",
    "owner": "EUMET",
    "state": "I-EUM"
   },
   "omm": {
    "OBJECT_NAME": "METEOSAT-9 (MSG-2)",
    "OBJECT_ID": "2005-049B",
    "EPOCH": "2026-07-07T05:24:18.847296",
    "MEAN_MOTION": 1.00268823,
    "ECCENTRICITY": 0.00021611,
    "INCLINATION": 9.4037,
    "RA_OF_ASC_NODE": 53.9656,
    "ARG_OF_PERICENTER": 0.5612,
    "MEAN_ANOMALY": 357.4517,
    "EPHEMERIS_TYPE": 0,
    "CLASSIFICATION_TYPE": "U",
    "NORAD_CAT_ID": 28912,
    "ELEMENT_SET_NO": 999,
    "REV_AT_EPOCH": 719,
    "BSTAR": 0,
    "MEAN_MOTION_DOT": 0.00000133,
    "MEAN_MOTION_DDOT": 0
   }
  },
  {
   "norad": 38771,
   "name": "METOP-B",
   "intl": "2012-049A",
   "group": "weather",
   "gcat": {
    "class": "C",
    "category": "MET",
    "owner": "EUMET",
    "state": "I-EUM"
   },
   "omm": {
    "OBJECT_NAME": "METOP-B",
    "OBJECT_ID": "2012-049A",
    "EPOCH": "2026-07-07T17:51:01.561248",
    "MEAN_MOTION": 14.21444955,
    "ECCENTRICITY": 0.000111,
    "INCLINATION": 98.6493,
    "RA_OF_ASC_NODE": 239.8318,
    "ARG_OF_PERICENTER": 301.4211,
    "MEAN_ANOMALY": 58.6858,
    "EPHEMERIS_TYPE": 0,
    "CLASSIFICATION_TYPE": "U",
    "NORAD_CAT_ID": 38771,
    "ELEMENT_SET_NO": 999,
    "REV_AT_EPOCH": 71618,
    "BSTAR": 0.000051499,
    "MEAN_MOTION_DOT": 6.9e-7,
    "MEAN_MOTION_DDOT": 0
   }
  },
  {
   "norad": 43689,
   "name": "METOP-C",
   "intl": "2018-087A",
   "group": "weather",
   "gcat": {
    "class": "C",
    "category": "MET",
    "owner": "EUMET",
    "state": "I-EUM"
   },
   "omm": {
    "OBJECT_NAME": "METOP-C",
    "OBJECT_ID": "2018-087A",
    "EPOCH": "2026-07-07T18:17:08.477952",
    "MEAN_MOTION": 14.21517661,
    "ECCENTRICITY": 0.00022,
    "INCLINATION": 98.6633,
    "RA_OF_ASC_NODE": 247.9884,
    "ARG_OF_PERICENTER": 103.2412,
    "MEAN_ANOMALY": 256.9011,
    "EPHEMERIS_TYPE": 0,
    "CLASSIFICATION_TYPE": "U",
    "NORAD_CAT_ID": 43689,
    "ELEMENT_SET_NO": 999,
    "REV_AT_EPOCH": 39775,
    "BSTAR": 0.000051615,
    "MEAN_MOTION_DOT": 7e-7,
    "MEAN_MOTION_DDOT": 0
   }
  },
  {
   "norad": 65159,
   "name": "METOP-SGA1",
   "intl": "2025-172A",
   "group": "weather",
   "gcat": {
    "class": "C",
    "category": "MET",
    "owner": "EUMET",
    "state": "I-EUM"
   },
   "omm": {
    "OBJECT_NAME": "METOP-SGA1",
    "OBJECT_ID": "2025-172A",
    "EPOCH": "2026-07-07T17:12:55.254816",
    "MEAN_MOTION": 14.19818396,
    "ECCENTRICITY": 0.0007484,
    "INCLINATION": 98.6633,
    "RA_OF_ASC_NODE": 248.0109,
    "ARG_OF_PERICENTER": 354.8269,
    "MEAN_ANOMALY": 5.2829,
    "EPHEMERIS_TYPE": 0,
    "CLASSIFICATION_TYPE": "U",
    "NORAD_CAT_ID": 65159,
    "ELEMENT_SET_NO": 999,
    "REV_AT_EPOCH": 4670,
    "BSTAR": 0.000029373,
    "MEAN_MOTION_DOT": 1.9e-7,
    "MEAN_MOTION_DDOT": 0
   }
  },
  {
   "norad": 64899,
   "name": "MICROCARB",
   "intl": "2025-156A",
   "group": "resource",
   "gcat": {
    "class": "C",
    "category": "SCI",
    "owner": "CNES",
    "state": "F"
   },
   "omm": {
    "OBJECT_NAME": "MICROCARB",
    "OBJECT_ID": "2025-156A",
    "EPOCH": "2026-07-07T17:42:36.270720",
    "MEAN_MOTION": 14.72879666,
    "ECCENTRICITY": 0.0017033,
    "INCLINATION": 98.0076,
    "RA_OF_ASC_NODE": 265.5446,
    "ARG_OF_PERICENTER": 194.58,
    "MEAN_ANOMALY": 165.4919,
    "EPHEMERIS_TYPE": 0,
    "CLASSIFICATION_TYPE": "U",
    "NORAD_CAT_ID": 64899,
    "ELEMENT_SET_NO": 999,
    "REV_AT_EPOCH": 5099,
    "BSTAR": 0.00007909,
    "MEAN_MOTION_DOT": 0.00000457,
    "MEAN_MOTION_DDOT": 0
   }
  },
  {
   "norad": 64723,
   "name": "MTG-S1",
   "intl": "2025-143A",
   "group": "weather",
   "gcat": {
    "class": "C",
    "category": "MET",
    "owner": "EUMET",
    "state": "I-EUM"
   },
   "omm": {
    "OBJECT_NAME": "MTG-S1",
    "OBJECT_ID": "2025-143A",
    "EPOCH": "2026-07-07T17:09:56.297088",
    "MEAN_MOTION": 1.00272532,
    "ECCENTRICITY": 0.0003284,
    "INCLINATION": 0.5888,
    "RA_OF_ASC_NODE": 343.2699,
    "ARG_OF_PERICENTER": 262.2372,
    "MEAN_ANOMALY": 297.2108,
    "EPHEMERIS_TYPE": 0,
    "CLASSIFICATION_TYPE": "U",
    "NORAD_CAT_ID": 64723,
    "ELEMENT_SET_NO": 999,
    "REV_AT_EPOCH": 362,
    "BSTAR": 0,
    "MEAN_MOTION_DOT": 7e-8,
    "MEAN_MOTION_DDOT": 0
   }
  },
  {
   "norad": 46277,
   "name": "NEMO-HD",
   "intl": "2020-061F",
   "group": "resource",
   "gcat": {
    "class": "A",
    "category": "IMG",
    "owner": "SPSI",
    "state": "SI"
   },
   "omm": {
    "OBJECT_NAME": "NEMO-HD",
    "OBJECT_ID": "2020-061F",
    "EPOCH": "2026-07-07T20:35:32.293824",
    "MEAN_MOTION": 15.45029195,
    "ECCENTRICITY": 0.0001206,
    "INCLINATION": 97.1907,
    "RA_OF_ASC_NODE": 250.6064,
    "ARG_OF_PERICENTER": 78.818,
    "MEAN_ANOMALY": 281.3205,
    "EPHEMERIS_TYPE": 0,
    "CLASSIFICATION_TYPE": "U",
    "NORAD_CAT_ID": 46277,
    "ELEMENT_SET_NO": 999,
    "REV_AT_EPOCH": 32517,
    "BSTAR": 0.00015619,
    "MEAN_MOTION_DOT": 0.00007283,
    "MEAN_MOTION_DDOT": 0
   }
  },
  {
   "norad": 65053,
   "name": "NISAR",
   "intl": "2025-163A",
   "group": "sar",
   "gcat": {
    "class": "C",
    "category": "IMG-R",
    "owner": "ISRO/JPL",
    "state": "IN"
   },
   "omm": {
    "OBJECT_NAME": "NISAR",
    "OBJECT_ID": "2025-163A",
    "EPOCH": "2026-07-07T18:23:17.099232",
    "MEAN_MOTION": 14.42504224,
    "ECCENTRICITY": 0.0001219,
    "INCLINATION": 98.4057,
    "RA_OF_ASC_NODE": 16.1307,
    "ARG_OF_PERICENTER": 89.4482,
    "MEAN_ANOMALY": 270.6847,
    "EPHEMERIS_TYPE": 0,
    "CLASSIFICATION_TYPE": "U",
    "NORAD_CAT_ID": 65053,
    "ELEMENT_SET_NO": 999,
    "REV_AT_EPOCH": 4935,
    "BSTAR": 0.000068861,
    "MEAN_MOTION_DOT": 0.00000185,
    "MEAN_MOTION_DDOT": 0
   }
  },
  {
   "norad": 43013,
   "name": "NOAA 20 (JPSS-1)",
   "intl": "2017-073A",
   "group": "weather",
   "gcat": {
    "class": "C",
    "category": "MET",
    "owner": "GSFC/NOAA",
    "state": "US"
   },
   "omm": {
    "OBJECT_NAME": "NOAA 20 (JPSS-1)",
    "OBJECT_ID": "2017-073A",
    "EPOCH": "2026-07-07T17:22:59.864736",
    "MEAN_MOTION": 14.19515485,
    "ECCENTRICITY": 0.0001101,
    "INCLINATION": 98.7773,
    "RA_OF_ASC_NODE": 128.0047,
    "ARG_OF_PERICENTER": 130.3272,
    "MEAN_ANOMALY": 229.8,
    "EPHEMERIS_TYPE": 0,
    "CLASSIFICATION_TYPE": "U",
    "NORAD_CAT_ID": 43013,
    "ELEMENT_SET_NO": 999,
    "REV_AT_EPOCH": 44738,
    "BSTAR": 0.000042393,
    "MEAN_MOTION_DOT": 4.5e-7,
    "MEAN_MOTION_DDOT": 0
   }
  }
 ]
}
