METEOSAT-9 (MSG-2)      
1 28912U 05049B   26188.22521814  .00000133  00000+0  00000+0 0  9995
2 28912   9.4037  53.9656 0002161   0.5612 357.4517  1.00268823  7194
METOP-B                 
1 38771U 12049A   26188.74376807  .00000069  00000+0  51499-4 0  9995
2 38771  98.6493 239.8318 0001110 301.4211  58.6858 14.21444955716188
NOAA 20 (JPSS-1)        
1 43013U 17073A   26188.72430399  .00000045  00000+0  42393-4 0  9994
2 43013  98.7773 128.0047 0001101 130.3272 229.8000 14.19515485447387
METOP-C                 
1 43689U 18087A   26188.76190368  .00000070  00000+0  51615-4 0  9997
2 43689  98.6633 247.9884 0002200 103.2412 256.9011 14.21517661397755
NEMO-HD                 
1 46277U 20061F   26188.85801266  .00007283  00000+0  15619-3 0  9990
2 46277  97.1907 250.6064 0001206  78.8180 281.3205 15.45029195325175
METEOSAT-12 (MTG-I1)    
1 54743U 22170C   26188.71532159  .00000007  00000+0  00000+0 0  9998
2 54743   0.7171  18.3212 0003972  82.3437  82.3271  1.00266664 13183
MTG-S1                  
1 64723U 25143A   26188.71523492  .00000007  00000+0  00000+0 0  9990
2 64723   0.5888 343.2699 0003284 262.2372 297.2108  1.00272532  3622
MICROCARB               
1 64899U 25156A   26188.73791980  .00000457  00000+0  79090-4 0  9998
2 64899  98.0076 265.5446 0017033 194.5800 165.4919 14.72879666 50995
NISAR                   
1 65053U 25163A   26188.76617013  .00000185  00000+0  68861-4 0  9998
2 65053  98.4057  16.1307 0001219  89.4482 270.6847 14.42504224 49353
METOP-SGA1              
1 65159U 25172A   26188.71730619  .00000019  00000+0  29373-4 0  9999
2 65159  98.6633 248.0109 0007484 354.8269   5.2829 14.19818396 46700
